{"fetched_at":"2026-03-29T16:36:15Z","count":15609,"tles":[{"name":"STARLINK-34700","line1":"1 64922U 25157U   26087.75551353  .00005035  00000+0  18200-3 0  9996","line2":"2 64922  53.1565 257.0496 0001070  75.1723 284.9396 15.30199632 38995","category":"Starlink"}]}